COSMOS 2433 (720)       
1 32275C 07052A   21305.99979167 -.00000001  00000-0  00000-0 0  3054
2 32275  66.0759  12.2223 0004703 233.9307 131.8931  2.13103996    18
COSMOS 2432 (719)       
1 32276C 07052B   21305.99979167 -.00000001  00000-0  00000-0 0  3055
2 32276  66.0891  12.3194 0009345 315.5366 359.1956  2.13103117    10
COSMOS 2434 (721)       
1 32393C 07065A   21305.99979167  .00000001  00000-0  00000-0 0  3058
2 32393  64.4303 249.1995 0001477  68.7597 185.8456  2.13102958    11
COSMOS 2436 (723)       
1 32395C 07065C   21305.99979167  .00000001  00000-0  00000-0 0  3050
2 32395  64.4392 249.2543 0015497 355.1633  35.4676  2.13102819    12
COSMOS 2456 (730)       
1 36111C 09070A   21305.99979167 -.00000000  00000-0  00000-0 0  3058
2 36111  64.3006 128.8647 0001817 355.0757  68.2806  2.13099189    11
COSMOS 2457 (733)       
1 36112C 09070B   21305.99979167 -.00000000  00000-0  00000-0 0  3059
2 36112  64.2835 128.7461 0006858 147.2161  41.6213  2.13101546    12
COSMOS 2459 (731)       
1 36400C 10007A   21305.99979167 -.00000001  00000-0  00000-0 0  3052
2 36400  65.9657  11.0923 0018058   3.1079 220.4159  2.13103318    17
COSMOS 2460 (732)       
1 36402C 10007C   21305.99979167 -.00000001  00000-0  00000-0 0  3054
2 36402  65.9526  11.0467 0002053 215.7923 313.9432  2.13106136    17
COSMOS 2464 (736)       
1 37139C 10041C   21305.99979167  .00000001  00000-0  00000-0 0  3059
2 37139  64.0296 248.3881 0028439   7.5948 106.9104  2.13100686    14
COSMOS 2476 (744)       
1 37867C 11064A   21305.99979167 -.00000001  00000-0  00000-0 0  3054
2 37867  64.5931 130.1320 0019421 230.3668  96.4958  2.13101887    19
COSMOS 2477 (745)       
1 37868C 11064B   21305.99979167 -.00000001  00000-0  00000-0 0  3055
2 37868  64.6010 130.1941 0016738 230.6912 274.4346  2.13101752    11
COSMOS 2475 (743)       
1 37869C 11064C   21305.99979167 -.00000001  00000-0  00000-0 0  3056
2 37869  64.6083 130.2002 0020132 253.0729 209.8962  2.13101947    11
COSMOS 2485 (747)       
1 39155C 13019A   21305.99979167 -.00000001  00000-0  00000-0 0  3058
2 39155  64.7584 130.5109 0020077 226.1173 145.2156  2.13101867    10
COSMOS 2492 (754)       
1 39620C 14012A   21305.99979167 -.00000001  00000-0  00000-0 0  3059
2 39620  65.8402  10.7597 0012616 314.2807  91.7008  2.13103002    15
COSMOS 2500 (755)       
1 40001C 14032A   21305.99979167 -.00000001  00000-0  00000-0 0  3056
2 40001  65.7803  10.6380 0008440 207.3299  57.9255  2.13102088    11
COSMOS 2501 (702)       
1 40315C 14075A   21305.99979167  .00000001  00000-0  00000-0 0  3050
2 40315  63.7398 249.1435 0017685 212.5485 219.6522  2.13101239    13
COSMOS 2514 (751)       
1 41330C 16008A   21305.99979167 -.00000001  00000-0  00000-0 0  3057
2 41330  65.5815  10.3861 0012113 214.1207 234.5354  2.13102551    14
COSMOS 2516 (753)       
1 41554C 16032A   21305.99979167  .00000001  00000-0  00000-0 0  3051
2 41554  64.7067 249.1597 0007652 252.3309  92.2903  2.13102717    12
COSMOS 2522 (752)       
1 42939C 17055A   21305.99979167  .00000001  00000-0  00000-0 0  3055
2 42939  64.1988 249.6838 0008520 251.3338 316.0336  2.13101957    17
COSMOS 2527 (756)       
1 43508C 18053A   21305.99979167 -.00000001  00000-0  00000-0 0  3058
2 43508  64.9220 130.4635 0006858 211.2640  28.2296  2.13102660    11
COSMOS 2529 (757)       
1 43687C 18086A   21305.99979167  .00000001  00000-0  00000-0 0  3051
2 43687  64.4134 249.9388 0010924 271.3672 251.5512  2.13102005    15
COSMOS 2534 (758)       
1 44299C 19030A   21305.99979167  .00000001  00000-0  00000-0 0  3051
2 44299  64.4847 249.8023 0013789 289.0411   8.6179  2.13101772    10
COSMOS 2544 (759)       
1 44850C 19088A   21305.99979167 -.00000001  00000-0  00000-0 0  3058
2 44850  64.9069 130.3206 0009777 253.4037  29.7265  2.13102410    12
COSMOS 2545 (760)       
1 45358C 20018A   21305.99979167 -.00000001  00000-0  00000-0 0  3057
2 45358  64.9164  11.1810 0010870 242.8671 250.0886  2.13102387    12
